{
    "links": {
        "self": "http://www.neowsapp.com/rest/v1/neo/3630270?api_key=iIulBulltgU6a56xZRHN4H3l9WmuAYTsLGpBGhQ2"
    },
    "id": "3630270",
    "neo_reference_id": "3630270",
    "name": "(2013 EO4)",
    "designation": "2013 EO4",
    "nasa_jpl_url": "http://ssd.jpl.nasa.gov/sbdb.cgi?sstr=3630270",
    "absolute_magnitude_h": 22.9,
    "estimated_diameter": {
        "kilometers": {
            "estimated_diameter_min": 0.0699125232,
            "estimated_diameter_max": 0.1563291544
        },
        "meters": {
            "estimated_diameter_min": 69.9125232246,
            "estimated_diameter_max": 156.3291544087
        },
        "miles": {
            "estimated_diameter_min": 0.0434416145,
            "estimated_diameter_max": 0.097138403
        },
        "feet": {
            "estimated_diameter_min": 229.3718026961,
            "estimated_diameter_max": 512.8909429502
        }
    },
    "is_potentially_hazardous_asteroid": false,
    "close_approach_data": [
        {
            "close_approach_date": "2013-02-26",
            "close_approach_date_full": "2013-Feb-26 17:29",
            "epoch_date_close_approach": 1361899740000,
            "relative_velocity": {
                "kilometers_per_second": "5.9693111039",
                "kilometers_per_hour": "21489.5199741848",
                "miles_per_hour": "13352.7520084039"
            },
            "miss_distance": {
                "astronomical": "0.2665679551",
                "lunar": "103.6949345339",
                "kilometers": "39877998.293215637",
                "miles": "24779039.1200923106"
            },
            "orbiting_body": "Earth"
        }
    ],
    "orbital_data": {
        "orbit_id": "7",
        "orbit_determination_date": "2017-04-06 08:46:36",
        "first_observation_date": "2013-03-02",
        "last_observation_date": "2013-04-02",
        "data_arc_in_days": 31,
        "observations_used": 21,
        "orbit_uncertainty": "6",
        "minimum_orbit_intersection": ".264851",
        "jupiter_tisserand_invariant": "4.571",
        "epoch_osculation": "2459000.5",
        "eccentricity": ".1483768287680513",
        "semi_major_axis": "1.470031584913535",
        "inclination": "11.27482756245868",
        "ascending_node_longitude": "158.7317567616697",
        "orbital_period": "651.0111485846394",
        "perihelion_distance": "1.251912960155192",
        "perihelion_argument": "346.5804217500158",
        "aphelion_distance": "1.688150209671877",
        "perihelion_time": "2458936.372291388082",
        "mean_anomaly": "35.46172004962062",
        "mean_motion": ".5529859216430848",
        "equinox": "J2000",
        "orbit_class": {
            "orbit_class_type": "AMO",
            "orbit_class_description": "Near-Earth asteroid orbits similar to that of 1221 Amor",
            "orbit_class_range": "1.017 AU < q (perihelion) < 1.3 AU"
        }
    },
    "is_sentry_object": false
}